OBJECT_NAME,OBJECT_ID,EPOCH,MEAN_MOTION,ECCENTRICITY,INCLINATION,RA_OF_ASC_NODE,ARG_OF_PERICENTER,MEAN_ANOMALY,EPHEMERIS_TYPE,CLASSIFICATION_TYPE,NORAD_CAT_ID,ELEMENT_SET_NO,REV_AT_EPOCH,BSTAR,MEAN_MOTION_DOT,MEAN_MOTION_DDOT
ONEWEB-0534,2023-029B,2026-07-04T04:46:48.469440,13.20772662,.00019865,87.9187,271.0788,102.1913,257.9443,0,U,55797,999,16339,.3137271E-3,.141E-5,0
ONEWEB-0556,2023-029C,2026-07-04T12:12:51.178752,13.20769566,.00011639,87.9184,271.0159,96.6396,263.4870,0,U,55798,999,16343,.91133796E-4,.5E-6,0
ONEWEB-0562,2023-029D,2026-07-04T11:53:28.871520,13.20771882,.00016842,87.9183,270.9997,75.6810,284.4510,0,U,55799,999,16343,.25860408E-3,.118E-5,0
ONEWEB-0563,2023-029E,2026-07-04T04:29:50.153856,13.20773321,.00019625,87.9185,271.0916,106.4707,253.6642,0,U,55800,999,16338,.33495188E-3,.149E-5,0
ONEWEB-0564,2023-029F,2026-07-04T11:36:31.298112,13.20772542,.00019072,87.9185,271.0059,88.6487,271.4865,0,U,55801,999,16343,.20896499E-3,.98E-6,0
ONEWEB-0638,2023-029G,2026-07-04T12:28:13.318176,13.14479013,.00010834,87.8958,286.2947,93.0165,267.1089,0,U,55802,999,16167,-.71487173E-2,-.2636E-4,0
ONEWEB-0639,2023-029H,2026-07-04T14:54:49.022208,13.19725970,.00022005,87.9184,301.5032,127.1343,232.9991,0,U,55803,999,16120,.81605287E-4,.46E-6,0
ONEWEB-0640,2023-029J,2026-07-04T12:41:52.653696,13.14502466,.00013253,87.8964,286.2855,107.8037,252.3237,0,U,55804,999,16169,-.12001763E-3,-.32E-6,0
ONEWEB-0641,2023-029K,2026-07-04T14:48:00.063360,13.19727015,.00019962,87.9189,301.4949,105.3860,254.7494,0,U,55805,999,16121,.19107049E-3,.89E-6,0
ONEWEB-0642,2023-029L,2026-07-04T14:41:11.712768,13.19726004,.00023482,87.9185,301.5065,121.3378,238.7985,0,U,55806,999,16120,.65820786E-4,.39E-6,0
ONEWEB-0643,2023-029M,2026-07-04T13:48:06.704640,13.14502645,.00024632,87.8961,286.2637,114.0343,246.1045,0,U,55807,999,16167,.75160371E-3,.291E-5,0
ONEWEB-0644,2023-029N,2026-07-04T14:34:22.221696,13.19725224,.00021336,87.9185,301.5084,109.8137,250.3226,0,U,55808,999,16120,.10684417E-3,.56E-6,0
ONEWEB-0645,2023-029P,2026-07-04T13:17:02.129568,13.19724898,.00017246,87.9183,301.5161,113.9691,246.1623,0,U,55809,999,16119,-.42045074E-4,-.4E-7,0
ONEWEB-0646,2023-029Q,2026-07-04T13:42:03.120480,13.19726549,.00021315,87.9184,301.5132,107.8806,252.2559,0,U,55810,999,16118,.48854974E-3,.209E-5,0
ONEWEB-0648,2023-029R,2026-07-04T13:02:26.272896,13.14503224,.00019502,87.8975,286.2453,127.6579,232.4728,0,U,55811,999,16167,-.30799069E-3,-.101E-5,0
ONEWEB-0649,2023-029S,2026-07-04T14:18:26.000064,13.19726233,.00018548,87.9181,301.5057,108.4507,251.6827,0,U,55812,999,16122,.12466751E-3,.63E-6,0
ONEWEB-0650,2023-029T,2026-07-04T14:11:36.520224,13.19726248,.00021932,87.9182,301.5093,116.7234,243.4123,0,U,55813,999,16119,.38952517E-3,.169E-5,0
ONEWEB-0652,2023-029U,2026-07-03T23:47:45.821184,13.14501685,.0002045,87.8972,286.3618,95.8106,264.3257,0,U,55814,999,16157,-.24834786E-3,-.79E-6,0
ONEWEB-0653,2023-029V,2026-07-04T12:12:11.252448,13.14501585,.0001913,87.8971,286.2572,99.3052,260.8294,0,U,55815,999,16167,.60128004E-3,.236E-5,0
ONEWEB-0654,2023-029W,2026-07-04T13:54:56.778912,13.14501519,.00019541,87.8970,286.2390,90.0254,270.1100,0,U,55816,999,16170,.72370475E-3,.281E-5,0
ONEWEB-0656,2023-029X,2026-07-04T15:04:57.909792,13.20770513,.00020614,87.9194,270.9548,87.0966,273.0404,0,U,55817,999,16345,-.58906346E-3,-.227E-5,0
ONEWEB-0657,2023-029Y,2026-07-04T14:04:48.211104,13.19726343,.00025635,87.9186,301.5089,91.5152,268.6275,0,U,55818,999,16120,.38850845E-3,.168E-5,0
ONEWEB-0658,2023-029Z,2026-07-04T13:57:58.860864,13.19727008,.00021112,87.9192,301.4867,110.8150,249.3209,0,U,55819,999,16121,.43320207E-3,.186E-5,0
ONEWEB-0660,2023-029AA,2026-07-04T06:04:32.064960,13.14501880,.00017234,87.8980,286.2990,107.2146,252.9172,0,U,55820,999,16164,.45810335E-3,.183E-5,0
ONEWEB-0661,2023-029AB,2026-07-04T12:23:37.271904,13.14502016,.00016774,87.8966,286.2884,103.4641,256.6676,0,U,55821,999,16166,.27579054E-3,.115E-5,0
ONEWEB-0662,2023-029AC,2026-07-04T13:13:51.262464,13.14502034,.0001756,87.8961,286.2872,107.3007,252.8315,0,U,55822,999,16171,-.20125207E-3,-.62E-6,0
ONEWEB-0663,2023-029AD,2026-07-04T12:13:29.337312,13.20870701,.00019096,87.9196,271.0500,112.1416,247.9920,0,U,55823,999,16343,.70960897E-4,.42E-6,0
ONEWEB-0664,2023-029AE,2026-07-04T12:56:31.327008,13.20771563,.00015699,87.9183,271.0231,95.1575,264.9737,0,U,55824,999,16343,.10722049E-4,.17E-6,0
ONEWEB-0665,2023-029AF,2026-07-04T12:19:03.046944,13.14501901,.00018441,87.8964,286.2697,110.1070,250.0258,0,U,55825,999,16168,.68757774E-3,.268E-5,0
ONEWEB-0666,2023-029AG,2026-07-04T12:46:48.455328,13.20773132,.00026606,87.9184,271.0145,91.4334,268.7104,0,U,55826,999,16344,.1348426E-3,.68E-6,0
