ONEWEB-0534             
1 55797U 23029B   26185.19917210  .00000141  00000+0  31373-3 0  9996
2 55797  87.9187 271.0788 0001986 102.1913 257.9443 13.20772662163391
ONEWEB-0556             
1 55798U 23029C   26185.50892568  .00000050  00000+0  91134-4 0  9991
2 55798  87.9184 271.0159 0001163  96.6396 263.4870 13.20769566163430
ONEWEB-0562             
1 55799U 23029D   26185.49547305  .00000118  00000+0  25860-3 0  9993
2 55799  87.9183 270.9997 0001684  75.6810 284.4510 13.20771882163432
ONEWEB-0563             
1 55800U 23029E   26185.18738604  .00000149  00000+0  33495-3 0  9993
2 55800  87.9185 271.0916 0001962 106.4707 253.6642 13.20773321163385
ONEWEB-0564             
1 55801U 23029F   26185.48369558  .00000098  00000+0  20896-3 0  9999
2 55801  87.9185 271.0059 0001907  88.6487 271.4865 13.20772542163434
ONEWEB-0638             
1 55802U 23029G   26185.51959859 -.00002636  00000+0 -71487-2 0  9996
2 55802  87.8958 286.2947 0001083  93.0165 267.1089 13.14479013161678
ONEWEB-0639             
1 55803U 23029H   26185.62140072  .00000046  00000+0  81605-4 0  9994
2 55803  87.9184 301.5032 0002200 127.1343 232.9991 13.19725970161208
ONEWEB-0640             
1 55804U 23029J   26185.52908164 -.00000032  00000+0 -12002-3 0  9999
2 55804  87.8964 286.2855 0001325 107.8037 252.3237 13.14502466161698
ONEWEB-0641             
1 55805U 23029K   26185.61666740  .00000089  00000+0  19107-3 0  9994
2 55805  87.9189 301.4949 0001996 105.3860 254.7494 13.19727015161217
ONEWEB-0642             
1 55806U 23029L   26185.61194112  .00000039  00000+0  65821-4 0  9994
2 55806  87.9185 301.5065 0002348 121.3378 238.7985 13.19726004161201
ONEWEB-0643             
1 55807U 23029M   26185.57507760  .00000291  00000+0  75160-3 0  9993
2 55807  87.8961 286.2637 0002463 114.0343 246.1045 13.14502645161675
ONEWEB-0644             
1 55808U 23029N   26185.60720164  .00000056  00000+0  10684-3 0  9992
2 55808  87.9185 301.5084 0002133 109.8137 250.3226 13.19725224161201
ONEWEB-0645             
1 55809U 23029P   26185.55349687 -.00000004  00000+0 -42045-4 0  9996
2 55809  87.9183 301.5161 0001724 113.9691 246.1623 13.19724898161190
ONEWEB-0646             
1 55810U 23029Q   26185.57086945  .00000209  00000+0  48855-3 0  9994
2 55810  87.9184 301.5132 0002131 107.8806 252.2559 13.19726549161184
ONEWEB-0648             
1 55811U 23029R   26185.54335964 -.00000101  00000+0 -30799-3 0  9991
2 55811  87.8975 286.2453 0001950 127.6579 232.4728 13.14503224161672
ONEWEB-0649             
1 55812U 23029S   26185.59613426  .00000063  00000+0  12467-3 0  9996
2 55812  87.9181 301.5057 0001854 108.4507 251.6827 13.19726233161221
ONEWEB-0650             
1 55813U 23029T   26185.59139491  .00000169  00000+0  38953-3 0  9997
2 55813  87.9182 301.5093 0002193 116.7234 243.4123 13.19726248161199
ONEWEB-0652             
1 55814U 23029U   26184.99150256 -.00000079  00000+0 -24835-3 0  9999
2 55814  87.8972 286.3618 0002045  95.8106 264.3257 13.14501685161573
ONEWEB-0653             
1 55815U 23029V   26185.50846357  .00000236  00000+0  60128-3 0  9990
2 55815  87.8971 286.2572 0001913  99.3052 260.8294 13.14501585161675
ONEWEB-0654             
1 55816U 23029W   26185.57982383  .00000281  00000+0  72370-3 0  9990
2 55816  87.8970 286.2390 0001954  90.0254 270.1100 13.14501519161701
ONEWEB-0656             
1 55817U 23029X   26185.62844803 -.00000227  00000+0 -58906-3 0  9992
2 55817  87.9194 270.9548 0002061  87.0966 273.0404 13.20770513163454
ONEWEB-0657             
1 55818U 23029Y   26185.58666911  .00000168  00000+0  38851-3 0  9999
2 55818  87.9186 301.5089 0002563  91.5152 268.6275 13.19726343161208
ONEWEB-0658             
1 55819U 23029Z   26185.58193126  .00000186  00000+0  43320-3 0  9990
2 55819  87.9192 301.4867 0002111 110.8150 249.3209 13.19727008161214
ONEWEB-0660             
1 55820U 23029AA  26185.25314890  .00000183  00000+0  45810-3 0  9992
2 55820  87.8980 286.2990 0001723 107.2146 252.9172 13.14501880161649
ONEWEB-0661             
1 55821U 23029AB  26185.51640361  .00000115  00000+0  27579-3 0  9994
2 55821  87.8966 286.2884 0001677 103.4641 256.6676 13.14502016161666
ONEWEB-0662             
1 55822U 23029AC  26185.55128776 -.00000062  00000+0 -20125-3 0  9993
2 55822  87.8961 286.2872 0001756 107.3007 252.8315 13.14502034161710
ONEWEB-0663             
1 55823U 23029AD  26185.50936733  .00000042  00000+0  70961-4 0  9999
2 55823  87.9196 271.0500 0001909 112.1416 247.9920 13.20870701163434
ONEWEB-0664             
1 55824U 23029AE  26185.53925147  .00000017  00000+0  10722-4 0  9991
2 55824  87.9183 271.0231 0001569  95.1575 264.9737 13.20771563163431
ONEWEB-0665             
1 55825U 23029AF  26185.51322971  .00000268  00000+0  68758-3 0  9995
2 55825  87.8964 286.2697 0001844 110.1070 250.0258 13.14501901161685
ONEWEB-0666             
1 55826U 23029AG  26185.53250527  .00000068  00000+0  13484-3 0  9999
2 55826  87.9184 271.0145 0002660  91.4334 268.7104 13.20773132163448
